ONEWEB-0212             
1 48791U 21045AA  25359.79919475 -.00000022  00000+0 -93795-4 0  9998
2 48791  87.9011 293.7794 0001713  75.8310 284.3010 13.15546483221636
ONEWEB-0227             
1 48792U 21045AB  25359.79840293  .00000074  00000+0  16157-3 0  9991
2 48792  87.9000 293.7883 0001754  73.3103 286.8219 13.15546724221582
ONEWEB-0226             
1 48793U 21045AC  25359.79206897  .00000025  00000+0  33153-4 0  9990
2 48793  87.9003 293.7989 0002047  69.4021 290.7329 13.15548082221556
ONEWEB-0224             
1 48794U 21045AD  25359.75561105  .00000040  00000+0  72535-4 0  9997
2 48794  87.9006 293.8414 0001145  48.2553 311.8675 13.15546892221474
ONEWEB-0233             
1 48795U 21045AE  25359.83628172  .00000030  00000+0  44491-4 0  9994
2 48795  87.9008 293.8354 0001743  65.4533 294.6779 13.15546743221505
ONEWEB-0190             
1 48796U 21045AF  25359.82375367  .00000158  00000+0  38577-3 0  9997
2 48796  87.9001 293.7997 0002139  55.3438 304.7893 13.15549882221577
ONEWEB-0236             
1 48797U 21045AG  25359.84117293 -.00000020  00000+0 -87299-4 0  9998
2 48797  87.9007 293.8079 0001704  79.2082 280.9240 13.15546783221469
ONEWEB-0248             
1 48798U 21045AH  25359.24540169 -.00000010  00000+0 -59845-4 0  9990
2 48798  87.9013 293.8916 0001650  56.6972 303.4316 13.15547169221547
ONEWEB-0225             
1 48799U 21045AJ  25359.79998514 -.00000027  00000+0 -10668-3 0  9999
2 48799  87.9003 293.8039 0002045  58.5820 301.5511 13.15546599221626
ONEWEB-0215             
1 48800U 21045AK  25359.84592419 -.00000085  00000+0 -25970-3 0  9998
2 48800  87.9018 293.7581 0001943  54.5522 305.5789 13.15546477221500
ONEWEB-0216             
1 48801U 21045AL  25359.32303928 -.00000240  00000+0 -67049-3 0  9993
2 48801  87.9003 293.8908 0001973  75.8525 284.2825 13.15548483221447
ONEWEB-0239             
1 48802U 21045AM  25359.86019646 -.00000045  00000+0 -15399-3 0  9998
2 48802  87.9000 293.7980 0001740  46.4990 313.6285 13.15546851221552
ONEWEB-0249             
1 48967U 21060A   25359.70302610  .00000041  00000+0  72933-4 0  9998
2 48967  87.9044 263.3219 0001635  69.9657 290.1650 13.16591968216787
ONEWEB-0250             
1 48968U 21060B   25359.80642287  .00000084  00000+0  16218-3 0  9997
2 48968  87.9043 261.6245 0000696  57.2657 302.8547 13.25821431217242
ONEWEB-0252             
1 48970U 21060D   25359.73469852  .00000127  00000+0  29802-3 0  9998
2 48970  87.9044 263.3091 0001892  74.6374 285.4966 13.16594993216837
ONEWEB-0253             
1 48971U 21060E   25359.79961447  .00000034  00000+0  55395-4 0  9996
2 48971  87.9047 263.3008 0001703  69.1696 290.9617 13.16592669216771
ONEWEB-0254             
1 48972U 21060F   25359.80911617  .00000069  00000+0  14631-3 0  9998
2 48972  87.9052 263.2913 0001566  61.4053 298.7236 13.16594360216774
