[{"OBJECT_NAME":"ONEWEB-0212","OBJECT_ID":"2021-045AA","EPOCH":"2025-12-25T19:10:50.426400","MEAN_MOTION":13.15546483,"ECCENTRICITY":0.0001713,"INCLINATION":87.9011,"RA_OF_ASC_NODE":293.7794,"ARG_OF_PERICENTER":75.831,"MEAN_ANOMALY":284.301,"EPHEMERIS_TYPE":0,"CLASSIFICATION_TYPE":"U","NORAD_CAT_ID":48791,"ELEMENT_SET_NO":999,"REV_AT_EPOCH":22163,"BSTAR":-9.3795e-5,"MEAN_MOTION_DOT":-2.2e-7,"MEAN_MOTION_DDOT":0},{"OBJECT_NAME":"ONEWEB-0227","OBJECT_ID":"2021-045AB","EPOCH":"2025-12-25T19:09:42.013152","MEAN_MOTION":13.15546724,"ECCENTRICITY":0.0001754,"INCLINATION":87.9,"RA_OF_ASC_NODE":293.7883,"ARG_OF_PERICENTER":73.3103,"MEAN_ANOMALY":286.8219,"EPHEMERIS_TYPE":0,"CLASSIFICATION_TYPE":"U","NORAD_CAT_ID":48792,"ELEMENT_SET_NO":999,"REV_AT_EPOCH":22158,"BSTAR":0.00016157,"MEAN_MOTION_DOT":7.4e-7,"MEAN_MOTION_DDOT":0},{"OBJECT_NAME":"ONEWEB-0226","OBJECT_ID":"2021-045AC","EPOCH":"2025-12-25T19:00:34.759008","MEAN_MOTION":13.15548082,"ECCENTRICITY":0.0002047,"INCLINATION":87.9003,"RA_OF_ASC_NODE":293.7989,"ARG_OF_PERICENTER":69.4021,"MEAN_ANOMALY":290.7329,"EPHEMERIS_TYPE":0,"CLASSIFICATION_TYPE":"U","NORAD_CAT_ID":48793,"ELEMENT_SET_NO":999,"REV_AT_EPOCH":22155,"BSTAR":3.3153e-5,"MEAN_MOTION_DOT":2.5e-7,"MEAN_MOTION_DDOT":0},{"OBJECT_NAME":"ONEWEB-0224","OBJECT_ID":"2021-045AD","EPOCH":"2025-12-25T18:08:04.794720","MEAN_MOTION":13.15546892,"ECCENTRICITY":0.0001145,"INCLINATION":87.9006,"RA_OF_ASC_NODE":293.8414,"ARG_OF_PERICENTER":48.2553,"MEAN_ANOMALY":311.8675,"EPHEMERIS_TYPE":0,"CLASSIFICATION_TYPE":"U","NORAD_CAT_ID":48794,"ELEMENT_SET_NO":999,"REV_AT_EPOCH":22147,"BSTAR":7.2535e-5,"MEAN_MOTION_DOT":4.0e-7,"MEAN_MOTION_DDOT":0},{"OBJECT_NAME":"ONEWEB-0233","OBJECT_ID":"2021-045AE","EPOCH":"2025-12-25T20:04:14.740608","MEAN_MOTION":13.15546743,"ECCENTRICITY":0.0001743,"INCLINATION":87.9008,"RA_OF_ASC_NODE":293.8354,"ARG_OF_PERICENTER":65.4533,"MEAN_ANOMALY":294.6779,"EPHEMERIS_TYPE":0,"CLASSIFICATION_TYPE":"U","NORAD_CAT_ID":48795,"ELEMENT_SET_NO":999,"REV_AT_EPOCH":22150,"BSTAR":4.4491e-5,"MEAN_MOTION_DOT":3.0e-7,"MEAN_MOTION_DDOT":0},{"OBJECT_NAME":"ONEWEB-0190","OBJECT_ID":"2021-045AF","EPOCH":"2025-12-25T19:46:12.317088","MEAN_MOTION":13.15549882,"ECCENTRICITY":0.0002139,"INCLINATION":87.9001,"RA_OF_ASC_NODE":293.7997,"ARG_OF_PERICENTER":55.3438,"MEAN_ANOMALY":304.7893,"EPHEMERIS_TYPE":0,"CLASSIFICATION_TYPE":"U","NORAD_CAT_ID":48796,"ELEMENT_SET_NO":999,"REV_AT_EPOCH":22157,"BSTAR":0.00038577,"MEAN_MOTION_DOT":1.58e-6,"MEAN_MOTION_DDOT":0},{"OBJECT_NAME":"ONEWEB-0236","OBJECT_ID":"2021-045AG","EPOCH":"2025-12-25T20:11:17.341152","MEAN_MOTION":13.15546783,"ECCENTRICITY":0.0001704,"INCLINATION":87.9007,"RA_OF_ASC_NODE":293.8079,"ARG_OF_PERICENTER":79.2082,"MEAN_ANOMALY":280.924,"EPHEMERIS_TYPE":0,"CLASSIFICATION_TYPE":"U","NORAD_CAT_ID":48797,"ELEMENT_SET_NO":999,"REV_AT_EPOCH":22146,"BSTAR":-8.7299e-5,"MEAN_MOTION_DOT":-2.0e-7,"MEAN_MOTION_DDOT":0},{"OBJECT_NAME":"ONEWEB-0248","OBJECT_ID":"2021-045AH","EPOCH":"2025-12-25T05:53:22.706016","MEAN_MOTION":13.15547169,"ECCENTRICITY":0.000165,"INCLINATION":87.9013,"RA_OF_ASC_NODE":293.8916,"ARG_OF_PERICENTER":56.6972,"MEAN_ANOMALY":303.4316,"EPHEMERIS_TYPE":0,"CLASSIFICATION_TYPE":"U","NORAD_CAT_ID":48798,"ELEMENT_SET_NO":999,"REV_AT_EPOCH":22154,"BSTAR":-5.9845e-5,"MEAN_MOTION_DOT":-1.0e-7,"MEAN_MOTION_DDOT":0},{"OBJECT_NAME":"ONEWEB-0225","OBJECT_ID":"2021-045AJ","EPOCH":"2025-12-25T19:11:58.716096","MEAN_MOTION":13.15546599,"ECCENTRICITY":0.0002045,"INCLINATION":87.9003,"RA_OF_ASC_NODE":293.8039,"ARG_OF_PERICENTER":58.582,"MEAN_ANOMALY":301.5511,"EPHEMERIS_TYPE":0,"CLASSIFICATION_TYPE":"U","NORAD_CAT_ID":48799,"ELEMENT_SET_NO":999,"REV_AT_EPOCH":22162,"BSTAR":-0.00010668,"MEAN_MOTION_DOT":-2.7e-7,"MEAN_MOTION_DDOT":0},{"OBJECT_NAME":"ONEWEB-0215","OBJECT_ID":"2021-045AK","EPOCH":"2025-12-25T20:18:07.850016","MEAN_MOTION":13.15546477,"ECCENTRICITY":0.0001943,"INCLINATION":87.9018,"RA_OF_ASC_NODE":293.7581,"ARG_OF_PERICENTER":54.5522,"MEAN_ANOMALY":305.5789,"EPHEMERIS_TYPE":0,"CLASSIFICATION_TYPE":"U","NORAD_CAT_ID":48800,"ELEMENT_SET_NO":999,"REV_AT_EPOCH":22150,"BSTAR":-0.0002597,"MEAN_MOTION_DOT":-8.5e-7,"MEAN_MOTION_DDOT":0},{"OBJECT_NAME":"ONEWEB-0216","OBJECT_ID":"2021-045AL","EPOCH":"2025-12-25T07:45:10.593792","MEAN_MOTION":13.15548483,"ECCENTRICITY":0.0001973,"INCLINATION":87.9003,"RA_OF_ASC_NODE":293.8908,"ARG_OF_PERICENTER":75.8525,"MEAN_ANOMALY":284.2825,"EPHEMERIS_TYPE":0,"CLASSIFICATION_TYPE":"U","NORAD_CAT_ID":48801,"ELEMENT_SET_NO":999,"REV_AT_EPOCH":22144,"BSTAR":-0.00067049,"MEAN_MOTION_DOT":-2.4e-6,"MEAN_MOTION_DDOT":0},{"OBJECT_NAME":"ONEWEB-0239","OBJECT_ID":"2021-045AM","EPOCH":"2025-12-25T20:38:40.974144","MEAN_MOTION":13.15546851,"ECCENTRICITY":0.000174,"INCLINATION":87.9,"RA_OF_ASC_NODE":293.798,"ARG_OF_PERICENTER":46.499,"MEAN_ANOMALY":313.6285,"EPHEMERIS_TYPE":0,"CLASSIFICATION_TYPE":"U","NORAD_CAT_ID":48802,"ELEMENT_SET_NO":999,"REV_AT_EPOCH":22155,"BSTAR":-0.00015399,"MEAN_MOTION_DOT":-4.5e-7,"MEAN_MOTION_DDOT":0},{"OBJECT_NAME":"ONEWEB-0249","OBJECT_ID":"2021-060A","EPOCH":"2025-12-25T16:52:21.455040","MEAN_MOTION":13.16591968,"ECCENTRICITY":0.0001635,"INCLINATION":87.9044,"RA_OF_ASC_NODE":263.3219,"ARG_OF_PERICENTER":69.9657,"MEAN_ANOMALY":290.165,"EPHEMERIS_TYPE":0,"CLASSIFICATION_TYPE":"U","NORAD_CAT_ID":48967,"ELEMENT_SET_NO":999,"REV_AT_EPOCH":21678,"BSTAR":7.2933e-5,"MEAN_MOTION_DOT":4.1e-7,"MEAN_MOTION_DDOT":0},{"OBJECT_NAME":"ONEWEB-0250","OBJECT_ID":"2021-060B","EPOCH":"2025-12-25T19:21:14.935968","MEAN_MOTION":13.25821431,"ECCENTRICITY":6.96e-5,"INCLINATION":87.9043,"RA_OF_ASC_NODE":261.6245,"ARG_OF_PERICENTER":57.2657,"MEAN_ANOMALY":302.8547,"EPHEMERIS_TYPE":0,"CLASSIFICATION_TYPE":"U","NORAD_CAT_ID":48968,"ELEMENT_SET_NO":999,"REV_AT_EPOCH":21724,"BSTAR":0.00016218,"MEAN_MOTION_DOT":8.4e-7,"MEAN_MOTION_DDOT":0},{"OBJECT_NAME":"ONEWEB-0252","OBJECT_ID":"2021-060D","EPOCH":"2025-12-25T17:37:57.952128","MEAN_MOTION":13.16594993,"ECCENTRICITY":0.0001892,"INCLINATION":87.9044,"RA_OF_ASC_NODE":263.3091,"ARG_OF_PERICENTER":74.6374,"MEAN_ANOMALY":285.4966,"EPHEMERIS_TYPE":0,"CLASSIFICATION_TYPE":"U","NORAD_CAT_ID":48970,"ELEMENT_SET_NO":999,"REV_AT_EPOCH":21683,"BSTAR":0.00029802,"MEAN_MOTION_DOT":1.27e-6,"MEAN_MOTION_DDOT":0},{"OBJECT_NAME":"ONEWEB-0253","OBJECT_ID":"2021-060E","EPOCH":"2025-12-25T19:11:26.690208","MEAN_MOTION":13.16592669,"ECCENTRICITY":0.0001703,"INCLINATION":87.9047,"RA_OF_ASC_NODE":263.3008,"ARG_OF_PERICENTER":69.1696,"MEAN_ANOMALY":290.9617,"EPHEMERIS_TYPE":0,"CLASSIFICATION_TYPE":"U","NORAD_CAT_ID":48971,"ELEMENT_SET_NO":999,"REV_AT_EPOCH":21677,"BSTAR":5.5395e-5,"MEAN_MOTION_DOT":3.4e-7,"MEAN_MOTION_DDOT":0},{"OBJECT_NAME":"ONEWEB-0254","OBJECT_ID":"2021-060F","EPOCH":"2025-12-25T19:25:07.637088","MEAN_MOTION":13.1659436,"ECCENTRICITY":0.0001566,"INCLINATION":87.9052,"RA_OF_ASC_NODE":263.2913,"ARG_OF_PERICENTER":61.4053,"MEAN_ANOMALY":298.7236,"EPHEMERIS_TYPE":0,"CLASSIFICATION_TYPE":"U","NORAD_CAT_ID":48972,"ELEMENT_SET_NO":999,"REV_AT_EPOCH":21677,"BSTAR":0.00014631,"MEAN_MOTION_DOT":6.9e-7,"MEAN_MOTION_DDOT":0}]
